NORAD_CAT_ID,OBJECT_NAME,OBJECT_TYPE,EPOCH,MEAN_MOTION,ECCENTRICITY,INCLINATION,RA_OF_ASC_NODE,ARG_OF_PERICENTER,MEAN_ANOMALY,BSTAR,MEAN_MOTION_DOT,MEAN_MOTION_DDOT,TLE_LINE0,TLE_LINE1,TLE_LINE2,SEMIMAJOR_AXIS,PERIOD,APOGEE,PERIGEE,DECAYED
53152.0,STARLINK-4045,PAYLOAD,2023-07-10 13:01:28,15.08838408,0.0001059,53.2153,212.7491,87.6348,272.4765,4.6759e-05,4.56e-06,0.0,0 STARLINK-4045,1 53152U 22083W   23191.54269210  .00000456  00000-0  46759-4 0  9996,2 53152  53.2153 212.7491 0001059  87.6348 272.4765 15.08838408 55079,6917.885,95.438,540.483,539.018,0.0
53152.0,STARLINK-4045,PAYLOAD,2023-07-11 17:38:25,15.08838283,0.0001069,53.2155,207.3961,85.4504,274.661,4.8522e-05,4.84e-06,0.0,0 STARLINK-4045,1 53152U 22083W   23192.73501378  .00000484  00000-0  48522-4 0  9993,2 53152  53.2155 207.3961 0001069  85.4504 274.6610 15.08838283 55258,6917.886,95.438,540.49,539.011,0.0
53152.0,STARLINK-4045,PAYLOAD,2023-07-13 17:19:59,15.08837649,0.0001103,53.2155,198.4756,87.905,272.2068,3.9057e-05,3.34e-06,0.0,0 STARLINK-4045,1 53152U 22083W   23194.72221752  .00000334  00000-0  39057-4 0  9996,2 53152  53.2155 198.4756 0001103  87.9050 272.2068 15.08837649 55551,6917.888,95.438,540.516,538.99,0.0
53152.0,STARLINK-4045,PAYLOAD,2023-07-15 07:29:14,15.08843082,0.0001154,53.2158,191.3393,86.3694,273.743,8.102e-05,1.002e-05,0.0,0 STARLINK-4045,1 53152U 22083W   23196.31197486  .00001002  00000-0  81020-4 0  9999,2 53152  53.2158 191.3393 0001154  86.3694 273.7430 15.08843082 55799,6917.871,95.437,540.534,538.938,0.0
53152.0,STARLINK-4045,PAYLOAD,2023-07-16 08:55:24,15.0884209,0.000114,53.2156,186.5814,86.4304,273.6818,6.5616e-05,7.57e-06,0.0,0 STARLINK-4045,1 53152U 22083W   23197.37181585  .00000757  00000-0  65616-4 0  9998,2 53152  53.2156 186.5814 0001140  86.4304 273.6818 15.08842090 55950,6917.874,95.437,540.528,538.95,0.0
53152.0,STARLINK-4045,PAYLOAD,2023-07-17 10:21:34,15.08843226,0.0001222,53.2161,181.8215,97.0771,263.0361,6.5045e-05,7.48e-06,0.0,0 STARLINK-4045,1 53152U 22083W   23198.43165485  .00000748  00000-0  65045-4 0  9993,2 53152  53.2161 181.8215 0001222  97.0771 263.0361 15.08843226 56113,6917.871,95.437,540.581,538.89,0.0
53152.0,STARLINK-4045,PAYLOAD,2023-07-18 00:40:03,15.08835549,0.0001228,53.216,179.1452,97.54,262.5732,-4.1148e-07,-2.94e-06,0.0,0 STARLINK-4045,1 53152U 22083W   23199.02782176 -.00000294  00000-0 -41148-6 0  9999,2 53152  53.2160 179.1452 0001228  97.5400 262.5732 15.08835549 56200,6917.894,95.438,540.609,538.909,0.0
53152.0,STARLINK-4045,PAYLOAD,2023-07-19 02:06:13,15.08839036,0.0001045,53.2156,174.3889,89.616,270.4952,1.4361e-05,-5.9e-07,0.0,0 STARLINK-4045,1 53152U 22083W   23200.08766048 -.00000059  00000-0  14361-4 0  9991,2 53152  53.2156 174.3889 0001045  89.6160 270.4952 15.08839036 56362,6917.883,95.438,540.471,539.025,0.0
53152.0,STARLINK-4045,PAYLOAD,2023-07-20 16:15:29,15.08832434,0.0001001,53.2156,167.2519,95.2607,264.85,2.9926e-05,1.88e-06,0.0,0 STARLINK-4045,1 53152U 22083W   23201.67742947  .00000188  00000-0  29926-4 0  9994,2 53152  53.2156 167.2519 0001001  95.2607 264.8500 15.08832434 56602,6917.904,95.438,540.461,539.076,0.0
53152.0,STARLINK-4045,PAYLOAD,2023-07-21 04:58:34,15.08839544,0.0001001,53.2157,164.8731,91.8886,268.2221,8.3507e-05,1.041e-05,0.0,0 STARLINK-4045,1 53152U 22083W   23202.20734532  .00001041  00000-0  83507-4 0  9999,2 53152  53.2157 164.8731 0001001  91.8886 268.2221 15.08839544 56688,6917.882,95.438,540.439,539.054,0.0
53152.0,STARLINK-4045,PAYLOAD,2023-07-23 23:44:46,15.08838174,0.0001149,53.2165,152.3825,102.9442,257.1678,2.107e-05,4.8e-07,0.0,0 STARLINK-4045,1 53152U 22083W   23204.98943045  .00000048  00000-0  21070-4 0  9990,2 53152  53.2165 152.3825 0001149 102.9442 257.1678 15.08838174 56476,6917.886,95.438,540.546,538.956,0.0
53152.0,STARLINK-4045,PAYLOAD,2023-07-25 05:57:05,15.08841563,9.94e-05,53.2166,146.7341,95.6823,264.4282,7.4281e-05,8.95e-06,0.0,0 STARLINK-4045,1 53152U 22083W   23206.24798609  .00000895  00000-0  74281-4 0  9997,2 53152  53.2166 146.7341 0000994  95.6823 264.4282 15.08841563 56664,6917.876,95.437,540.428,539.053,0.0
53152.0,STARLINK-4045,PAYLOAD,2023-07-26 02:37:06,15.08862813,0.0001292,53.2159,142.8649,85.4145,274.6995,-0.00018003,-3.154e-05,0.0,0 STARLINK-4045,1 53152U 22083W   23207.10910232 -.00003154  00000-0 -18003-3 0  9993,2 53152  53.2159 142.8649 0001292  85.4145 274.6995 15.08862813 56799,6917.811,95.436,540.569,538.782,0.0
53152.0,STARLINK-4045,PAYLOAD,2023-07-27 02:27:54,15.08837391,0.0001173,53.2167,138.407,92.2232,267.8895,7.1901e-06,-1.73e-06,0.0,0 STARLINK-4045,1 53152U 22083W   23208.10270984 -.00000173  00000-0  71901-5 0  9992,2 53152  53.2167 138.4070 0001173  92.2232 267.8895 15.08837391 57571,6917.888,95.438,540.565,538.942,0.0
53152.0,STARLINK-4045,PAYLOAD,2023-07-27 15:11:00,15.08825544,0.000123,53.2163,136.0289,97.6841,262.4291,-3.0258e-05,-7.69e-06,0.0,0 STARLINK-4045,1 53152U 22083W   23208.63264056 -.00000769  00000-0 -30258-4 0  9994,2 53152  53.2163 136.0289 0001230  97.6841 262.4291 15.08825544 57659,6917.925,95.438,540.64,538.939,0.0
53152.0,STARLINK-4045,PAYLOAD,2023-07-28 02:18:42,15.08833723,0.000118,53.2163,133.9474,96.9863,263.1264,-7.4155e-05,-1.468e-05,0.0,0 STARLINK-4045,1 53152U 22083W   23209.09631990 -.00001468  00000-0 -74155-4 0  9991,2 53152  53.2163 133.9474 0001180  96.9863 263.1264 15.08833723 57725,6917.9,95.438,540.581,538.948,0.0
53152.0,STARLINK-4045,PAYLOAD,2023-07-29 02:09:28,15.08839332,0.0001154,53.2163,129.4871,94.7586,265.3538,0.00013481,1.858e-05,0.0,0 STARLINK-4045,1 53152U 22083W   23210.08991161  .00001858  00000-0  13481-3 0  9996,2 53152  53.2163 129.4871 0001154  94.7586 265.3538 15.08839332 57871,6917.882,95.438,540.546,538.949,0.0
53152.0,STARLINK-4045,PAYLOAD,2023-07-29 11:41:47,15.08835988,8.21e-05,53.2167,127.7026,74.826,285.2823,0.00014662,2.046e-05,0.0,0 STARLINK-4045,1 53152U 22083W   23210.48735471  .00002046  00000-0  14662-3 0  9992,2 53152  53.2167 127.7026 0000821  74.8260 285.2823 15.08835988 57934,6917.893,95.438,540.326,539.19,0.0
53152.0,STARLINK-4045,PAYLOAD,2023-07-31 00:15:39,15.08845395,0.0001283,53.217,120.8613,90.4387,269.6752,-1.8471e-05,-5.82e-06,0.0,0 STARLINK-4045,1 53152U 22083W   23212.01087645 -.00000582  00000-0 -18471-4 0  9994,2 53152  53.2170 120.8613 0001283  90.4387 269.6752 15.08845395 58167,6917.864,95.437,540.616,538.841,0.0
53152.0,STARLINK-4045,PAYLOAD,2023-08-01 17:35:41,15.08837754,0.0001372,53.2161,113.1322,78.9792,281.1355,2.4331e-05,9.9e-07,0.0,0 STARLINK-4045,1 53152U 22083W   23213.73311908  .00000099  00000-0  24331-4 0  9999,2 53152  53.2161 113.1322 0001372  78.9792 281.1355 15.08837754 58426,6917.887,95.438,540.701,538.803,0.0
53152.0,STARLINK-4045,PAYLOAD,2023-08-02 23:48:00,15.08846799,0.0001396,53.2166,107.4808,91.1026,269.0126,3.1106e-05,2.07e-06,0.0,0 STARLINK-4045,1 53152U 22083W   23214.99167339  .00000207  00000-0  31106-4 0  9994,2 53152  53.2166 107.4808 0001396  91.1026 269.0126 15.08846799 58610,6917.86,95.437,540.69,538.759,0.0
53152.0,STARLINK-4045,PAYLOAD,2023-08-03 02:58:46,15.08857837,0.0001361,53.2167,106.8852,97.2374,262.8773,-6.3031e-05,-1.291e-05,0.0,0 STARLINK-4045,1 53152U 22083W   23215.12414867 -.00001291  00000-0 -63031-4 0  9999,2 53152  53.2167 106.8852 0001361  97.2374 262.8773 15.08857837 58634,6917.826,95.436,540.632,538.749,0.0
53152.0,STARLINK-4045,PAYLOAD,2023-08-03 22:03:25,15.08838593,0.0001748,53.2167,103.3124,124.972,235.1436,-1.01e-06,-3.04e-06,0.0,0 STARLINK-4045,1 53152U 22083W   23215.91904217 -.00000304  00000-0 -10100-5 0  9993,2 53152  53.2167 103.3124 0001748 124.9720 235.1436 15.08838593 58750,6917.885,95.438,540.959,538.54,0.0
53152.0,STARLINK-4045,PAYLOAD,2023-08-05 10:37:20,15.08738568,0.0002024,53.2164,96.4788,126.2798,233.8382,0.0014594,0.0002295,0.0,0 STARLINK-4045,1 53152U 22083W   23217.44259587  .00022950  00000-0  14594-2 0  9993,2 53152  53.2164  96.4788 0002024 126.2798 233.8382 15.08738568 58984,6918.19,95.444,541.456,538.655,0.0
53152.0,STARLINK-4045,PAYLOAD,2023-08-06 04:06:31,15.08850638,0.0001275,53.2163,93.2091,96.6946,263.4191,0.00017788,2.545e-05,0.0,0 STARLINK-4045,1 53152U 22083W   23218.17119408  .00002545  00000-0  17788-3 0  9998,2 53152  53.2163  93.2091 0001275  96.6946 263.4191 15.08850638 59090,6917.848,95.437,540.595,538.831,0.0
53152.0,STARLINK-4045,PAYLOAD,2023-08-06 08:52:43,15.08816994,0.0001269,53.2164,92.3173,81.9695,278.1441,-8.4479e-05,-1.631e-05,0.0,0 STARLINK-4045,1 53152U 22083W   23218.36994380 -.00001631  00000-0 -84479-4 0  9998,2 53152  53.2164  92.3173 0001269  81.9695 278.1441 15.08816994 59125,6917.951,95.439,540.694,538.938,0.0
53152.0,STARLINK-4045,PAYLOAD,2023-08-06 20:00:24,15.08826375,0.0001265,53.2165,90.2353,82.6643,277.4492,-4.1563e-05,-9.49e-06,0.0,0 STARLINK-4045,1 53152U 22083W   23218.83362168 -.00000949  00000-0 -41563-4 0  9991,2 53152  53.2165  90.2353 0001265  82.6643 277.4492 15.08826375 59199,6917.922,95.438,540.662,538.912,0.0
53152.0,STARLINK-4045,PAYLOAD,2023-08-07 00:46:33,15.0883012,0.0001267,53.2155,89.3426,83.7631,276.3505,-2.9901e-05,-7.64e-06,0.0,0 STARLINK-4045,1 53152U 22083W   23219.03233544 -.00000764  00000-0 -29901-4 0  9996,2 53152  53.2155  89.3426 0001267  83.7631 276.3505 15.08830120 59229,6917.911,95.438,540.652,538.899,0.0
53152.0,STARLINK-4045,PAYLOAD,2023-08-07 18:15:47,15.08847053,0.0001241,53.2158,86.0718,78.0756,282.0375,0.00025406,3.759e-05,0.0,0 STARLINK-4045,1 53152U 22083W   23219.76097046  .00003759  00000-0  25406-3 0  9991,2 53152  53.2158  86.0718 0001241  78.0756 282.0375 15.08847053 59331,6917.859,95.437,540.582,538.865,0.0
53152.0,STARLINK-4045,PAYLOAD,2023-08-08 14:55:48,15.08845004,0.0001173,53.2172,82.2061,78.0823,282.0301,0.00023754,3.495e-05,0.0,0 STARLINK-4045,1 53152U 22083W   23220.62209014  .00003495  00000-0  23754-3 0  9999,2 53152  53.2172  82.2061 0001173  78.0823 282.0301 15.08845004 59462,6917.865,95.437,540.542,538.919,0.0
